ONEWEB-0196             
1 48218U 21031J   25092.49507701 -.00000034  00000+0 -12620-3 0  9993
2 48218  87.9095  17.3418 0001781  75.7100 284.4228 13.14504109190338
ONEWEB-0183             
1 48219U 21031K   25092.54582541  .00000235  00000+0  59943-3 0  9995
2 48219  87.9089  17.3455 0001808  83.5576 276.5759 13.14503754190434
ONEWEB-0185             
1 48220U 21031L   25092.49587055 -.00000049  00000+0 -16767-3 0  9998
2 48220  87.9090  17.3249 0001598  82.2391 277.8920 13.14503589190357
ONEWEB-0187             
1 48221U 21031M   25092.85647494  .00000190  00000+0  47851-3 0  9996
2 48221  87.9095  17.2946 0001500  82.2071 277.9228 13.14504055190412
ONEWEB-0192             
1 48222U 21031N   25092.52203565 -.00000060  00000+0 -19519-3 0  9996
2 48222  87.9090  17.3545 0001736  74.6379 285.4942 13.14504151190280
ONEWEB-0219             
1 48223U 21031P   25092.50141899 -.00000055  00000+0 -18272-3 0  9995
2 48223  87.9093  17.3310 0001638  79.6416 280.4899 13.14504060190489
ONEWEB-0202             
1 48224U 21031Q   25092.48238688  .00000155  00000+0  38431-3 0  9994
2 48224  87.9091  17.3507 0001384  54.0255 306.1003 13.14505223190465
ONEWEB-0204             
1 48225U 21031R   25092.51648313 -.00000142  00000+0 -41613-3 0  9993
2 48225  87.9089  17.3563 0001968  86.8334 273.3021 13.14505108190360
